{
  "type": "FeatureCollection",
  "features": [
    {
      "type": "Feature",
      "properties": {
        "norad_id": 34878,
        "name": "COSMOS 2251 DEB",
        "group": "cosmos-2251-debris",
        "lat": -21.928293500653194,
        "lon": -144.4046802047649,
        "alt_km": 1415.6324203490567,
        "timestamp": "2025-12-24T07:45:06.594234+00:00",
        "meta_object_name": "COSMOS 2251 DEB",
        "meta_object_id": "1993-036ACR",
        "meta_epoch": "2025-12-23T20:54:13.289760",
        "meta_mean_motion": 13.44205311,
        "meta_eccentricity": 0.0435702,
        "meta_inclination": 73.965,
        "meta_ra_of_asc_node": 29.6641,
        "meta_arg_of_pericenter": 10.9994,
        "meta_mean_anomaly": 166.3695,
        "meta_ephemeris_type": 0,
        "meta_classification_type": "U",
        "meta_norad_cat_id": 34878,
        "meta_element_set_no": 999,
        "meta_rev_at_epoch": 81422,
        "meta_bstar": 0.00069148369,
        "meta_mean_motion_dot": 6.89e-06,
        "meta_mean_motion_ddot": 0,
        "tle_line1": "1 34878U 93036ACR 25357.87098715  .00000689  00000+0  69148-3 0  9991",
        "tle_line2": "2 34878  73.9650  29.6641 0435702  10.9994 166.3695 13.44205311814220"
      },
      "geometry": {
        "type": "Point",
        "coordinates": [
          -144.4046802047649,
          -21.928293500653194
        ]
      }
    },
    {
      "type": "Feature",
      "properties": {
        "norad_id": 34882,
        "name": "COSMOS 2251 DEB",
        "group": "cosmos-2251-debris",
        "lat": -46.66935647046403,
        "lon": 41.09902065359418,
        "alt_km": 702.6282965415057,
        "timestamp": "2025-12-24T07:45:06.594244+00:00",
        "meta_object_name": "COSMOS 2251 DEB",
        "meta_object_id": "1993-036ACV",
        "meta_epoch": "2025-12-22T13:37:59.630592",
        "meta_mean_motion": 14.61613219,
        "meta_eccentricity": 0.00833251,
        "meta_inclination": 74.0449,
        "meta_ra_of_asc_node": 206.7999,
        "meta_arg_of_pericenter": 331.387,
        "meta_mean_anomaly": 28.2735,
        "meta_ephemeris_type": 0,
        "meta_classification_type": "U",
        "meta_norad_cat_id": 34882,
        "meta_element_set_no": 999,
        "meta_rev_at_epoch": 88668,
        "meta_bstar": 0.0001119864,
        "meta_mean_motion_dot": 5.51e-06,
        "meta_mean_motion_ddot": 0,
        "tle_line1": "1 34882U 93036ACV 25356.56805128  .00000551  00000+0  11199-3 0  9996",
        "tle_line2": "2 34882  74.0449 206.7999 0083325 331.3870  28.2735 14.61613219886680"
      },
      "geometry": {
        "type": "Point",
        "coordinates": [
          41.09902065359418,
          -46.66935647046403
        ]
      }
    },
    {
      "type": "Feature",
      "properties": {
        "norad_id": 34883,
        "name": "COSMOS 2251 DEB",
        "group": "cosmos-2251-debris",
        "lat": -41.198567343981956,
        "lon": -124.52535499001613,
        "alt_km": 659.0551210387321,
        "timestamp": "2025-12-24T07:45:06.594254+00:00",
        "meta_object_name": "COSMOS 2251 DEB",
        "meta_object_id": "1993-036ACW",
        "meta_epoch": "2025-12-23T02:36:33.483168",
        "meta_mean_motion": 14.51787467,
        "meta_eccentricity": 0.00942228,
        "meta_inclination": 74.1995,
        "meta_ra_of_asc_node": 43.3859,
        "meta_arg_of_pericenter": 225.8341,
        "meta_mean_anomaly": 133.505,
        "meta_ephemeris_type": 0,
        "meta_classification_type": "U",
        "meta_norad_cat_id": 34883,
        "meta_element_set_no": 999,
        "meta_rev_at_epoch": 86590,
        "meta_bstar": 0.003571855,
        "meta_mean_motion_dot": 0.00015225,
        "meta_mean_motion_ddot": 0,
        "tle_line1": "1 34883U 93036ACW 25357.10872087  .00015225  00000+0  35719-2 0  9993",
        "tle_line2": "2 34883  74.1995  43.3859 0094222 225.8341 133.5050 14.51787467865904"
      },
      "geometry": {
        "type": "Point",
        "coordinates": [
          -124.52535499001613,
          -41.198567343981956
        ]
      }
    },
    {
      "type": "Feature",
      "properties": {
        "norad_id": 34884,
        "name": "COSMOS 2251 DEB",
        "group": "cosmos-2251-debris",
        "lat": -31.2212604270766,
        "lon": 23.520872496656807,
        "alt_km": 601.0570176235042,
        "timestamp": "2025-12-24T07:45:06.594264+00:00",
        "meta_object_name": "COSMOS 2251 DEB",
        "meta_object_id": "1993-036ACX",
        "meta_epoch": "2025-12-23T21:24:42.685344",
        "meta_mean_motion": 14.90539862,
        "meta_eccentricity": 0.00029786,
        "meta_inclination": 74.0166,
        "meta_ra_of_asc_node": 34.3892,
        "meta_arg_of_pericenter": 34.6365,
        "meta_mean_anomaly": 142.0083,
        "meta_ephemeris_type": 0,
        "meta_classification_type": "U",
        "meta_norad_cat_id": 34884,
        "meta_element_set_no": 999,
        "meta_rev_at_epoch": 87971,
        "meta_bstar": 0.0023303409,
        "meta_mean_motion_dot": 0.00022822,
        "meta_mean_motion_ddot": 0,
        "tle_line1": "1 34884U 93036ACX 25357.89216071  .00022822  00000+0  23303-2 0  9992",
        "tle_line2": "2 34884  74.0166  34.3892 0002978  34.6365 142.0083 14.90539862879712"
      },
      "geometry": {
        "type": "Point",
        "coordinates": [
          23.520872496656807,
          -31.2212604270766
        ]
      }
    },
    {
      "type": "Feature",
      "properties": {
        "norad_id": 34885,
        "name": "COSMOS 2251 DEB",
        "group": "cosmos-2251-debris",
        "lat": 35.88664829420999,
        "lon": 173.16938754386896,
        "alt_km": 727.1008655974447,
        "timestamp": "2025-12-24T07:45:06.594274+00:00",
        "meta_object_name": "COSMOS 2251 DEB",
        "meta_object_id": "1993-036ACY",
        "meta_epoch": "2025-12-23T18:25:17.940000",
        "meta_mean_motion": 14.51558364,
        "meta_eccentricity": 0.00150763,
        "meta_inclination": 74.0301,
        "meta_ra_of_asc_node": 162.2571,
        "meta_arg_of_pericenter": 247.7319,
        "meta_mean_anomaly": 128.5918,
        "meta_ephemeris_type": 0,
        "meta_classification_type": "U",
        "meta_norad_cat_id": 34885,
        "meta_element_set_no": 999,
        "meta_rev_at_epoch": 87639,
        "meta_bstar": 0.00073001763,
        "meta_mean_motion_dot": 2.899e-05,
        "meta_mean_motion_ddot": 0,
        "tle_line1": "1 34885U 93036ACY 25357.76756875  .00002899  00000+0  73002-3 0  9994",
        "tle_line2": "2 34885  74.0301 162.2571 0015076 247.7319 128.5918 14.51558364876390"
      },
      "geometry": {
        "type": "Point",
        "coordinates": [
          173.16938754386896,
          35.88664829420999
        ]
      }
    },
    {
      "type": "Feature",
      "properties": {
        "norad_id": 34886,
        "name": "COSMOS 2251 DEB",
        "group": "cosmos-2251-debris",
        "lat": -0.4466937902409065,
        "lon": -24.013047508105547,
        "alt_km": 468.546642669643,
        "timestamp": "2025-12-24T07:45:06.594284+00:00",
        "meta_object_name": "COSMOS 2251 DEB",
        "meta_object_id": "1993-036ACZ",
        "meta_epoch": "2025-12-19T05:20:10.106016",
        "meta_mean_motion": 15.39455892,
        "meta_eccentricity": 0.0031395,
        "meta_inclination": 73.9504,
        "meta_ra_of_asc_node": 166.9286,
        "meta_arg_of_pericenter": 349.772,
        "meta_mean_anomaly": 10.2844,
        "meta_ephemeris_type": 0,
        "meta_classification_type": "U",
        "meta_norad_cat_id": 34886,
        "meta_element_set_no": 999,
        "meta_rev_at_epoch": 63098,
        "meta_bstar": 0.0012728,
        "meta_mean_motion_dot": 0.00051055,
        "meta_mean_motion_ddot": 0,
        "tle_line1": "1 34886U 93036ACZ 25353.22233919  .00051055  00000+0  12728-2 0  9996",
        "tle_line2": "2 34886  73.9504 166.9286 0031395 349.7720  10.2844 15.39455892630986"
      },
      "geometry": {
        "type": "Point",
        "coordinates": [
          -24.013047508105547,
          -0.4466937902409065
        ]
      }
    },
    {
      "type": "Feature",
      "properties": {
        "norad_id": 34907,
        "name": "COSMOS 2251 DEB",
        "group": "cosmos-2251-debris",
        "lat": 64.87601742607539,
        "lon": 165.14620144376715,
        "alt_km": 414.84209825374364,
        "timestamp": "2025-12-24T07:45:06.594294+00:00",
        "meta_object_name": "COSMOS 2251 DEB",
        "meta_object_id": "1993-036ADC",
        "meta_epoch": "2025-12-21T12:42:42.511680",
        "meta_mean_motion": 15.49920012,
        "meta_eccentricity": 0.0018559,
        "meta_inclination": 73.9666,
        "meta_ra_of_asc_node": 29.1312,
        "meta_arg_of_pericenter": 328.4772,
        "meta_mean_anomaly": 31.5327,
        "meta_ephemeris_type": 0,
        "meta_classification_type": "U",
        "meta_norad_cat_id": 34907,
        "meta_element_set_no": 999,
        "meta_rev_at_epoch": 88109,
        "meta_bstar": 0.006372,
        "meta_mean_motion_dot": 0.00375951,
        "meta_mean_motion_ddot": 0,
        "tle_line1": "1 34907U 93036ADC 25355.52965870  .00375951  00000+0  63720-2 0  9995",
        "tle_line2": "2 34907  73.9666  29.1312 0018559 328.4772  31.5327 15.49920012881091"
      },
      "geometry": {
        "type": "Point",
        "coordinates": [
          165.14620144376715,
          64.87601742607539
        ]
      }
    }
  ]
}